{"type": "FeatureCollection", "features": [ {"type": "Feature", "properties": {"norad_id": 33492, "name": "GOSAT (IBUKI)", "group": "resource", "lat": 74.5982528984721, "lon": -39.83481824782903, "alt_km": 661.0512066379642, "timestamp": "2025-12-26T17:24:54.374567+00:00", "meta": {"OBJECT_NAME": "GOSAT (IBUKI)", "OBJECT_ID": "2009-002A", "EPOCH": "2025-12-26T07:07:43.621824", "MEAN_MOTION": 14.67550857, "ECCENTRICITY": 0.00010366, "INCLINATION": 98.0771, "RA_OF_ASC_NODE": 108.7121, "ARG_OF_PERICENTER": 105.7066, "MEAN_ANOMALY": 254.4253, "EPHEMERIS_TYPE": 0, "CLASSIFICATION_TYPE": "U", "NORAD_CAT_ID": 33492, "ELEMENT_SET_NO": 999, "REV_AT_EPOCH": 90610, "BSTAR": 0.00017141999, "MEAN_MOTION_DOT": 9.24e-06, "MEAN_MOTION_DDOT": 0}, "tle": {"line1": "1 33492U 09002A   25360.29703266  .00000924  00000+0  17142-3 0  9995", "line2": "2 33492  98.0771 108.7121 0001036 105.7066 254.4253 14.67550857906109"}}, "geometry": {"type": "Point", "coordinates": [-39.83481824782903, 74.5982528984721]}}, {"type": "Feature", "properties": {"norad_id": 35681, "name": "DEIMOS-1", "group": "resource", "lat": -13.529555860022018, "lon": -21.190969825980556, "alt_km": 651.0620953227108, "timestamp": "2025-12-26T17:24:54.374578+00:00", "meta": {"OBJECT_NAME": "DEIMOS-1", "OBJECT_ID": "2009-041A", "EPOCH": "2025-12-26T06:46:18.197184", "MEAN_MOTION": 14.74972651, "ECCENTRICITY": 0.00024348, "INCLINATION": 97.7158, "RA_OF_ASC_NODE": 160.2558, "ARG_OF_PERICENTER": 59.0928, "MEAN_ANOMALY": 301.052, "EPHEMERIS_TYPE": 0, "CLASSIFICATION_TYPE": "U", "NORAD_CAT_ID": 35681, "ELEMENT_SET_NO": 999, "REV_AT_EPOCH": 88139, "BSTAR": 0.00013174174, "MEAN_MOTION_DOT": 8.38e-06, "MEAN_MOTION_DDOT": 0}, "tle": {"line1": "1 35681U 09041A   25360.28215506  .00000838  00000+0  13174-3 0  9999", "line2": "2 35681  97.7158 160.2558 0002434  59.0928 301.0520 14.74972651881391"}}, "geometry": {"type": "Point", "coordinates": [-21.190969825980556, -13.529555860022018]}}, {"type": "Feature", "properties": {"norad_id": 35682, "name": "DUBAISAT-1", "group": "resource", "lat": 67.0512414796906, "lon": -29.452649538335653, "alt_km": 645.5292258452037, "timestamp": "2025-12-26T17:24:54.374589+00:00", "meta": {"OBJECT_NAME": "DUBAISAT-1", "OBJECT_ID": "2009-041B", "EPOCH": "2025-12-26T07:08:21.734592", "MEAN_MOTION": 14.7464095, "ECCENTRICITY": 0.00092527, "INCLINATION": 97.9798, "RA_OF_ASC_NODE": 130.7784, "ARG_OF_PERICENTER": 265.5902, "MEAN_ANOMALY": 94.4249, "EPHEMERIS_TYPE": 0, "CLASSIFICATION_TYPE": "U", "NORAD_CAT_ID": 35682, "ELEMENT_SET_NO": 999, "REV_AT_EPOCH": 87961, "BSTAR": 0.00022198652, "MEAN_MOTION_DOT": 1.431e-05, "MEAN_MOTION_DDOT": 0}, "tle": {"line1": "1 35682U 09041B   25360.29747378  .00001431  00000+0  22199-3 0  9995", "line2": "2 35682  97.9798 130.7784 0009252 265.5902  94.4249 14.74640950879615"}}, "geometry": {"type": "Point", "coordinates": [-29.452649538335653, 67.0512414796906]}}, {"type": "Feature", "properties": {"norad_id": 35931, "name": "OCEANSAT-2", "group": "resource", "lat": 60.35059430411731, "lon": -165.37878546576258, "alt_km": 893.2193478535328, "timestamp": "2025-12-26T17:24:54.374600+00:00", "meta": {"OBJECT_NAME": "OCEANSAT-2", "OBJECT_ID": "2009-051A", "EPOCH": "2025-12-26T06:33:26.788608", "MEAN_MOTION": 13.99622996, "ECCENTRICITY": 0.00158763, "INCLINATION": 98.2218, "RA_OF_ASC_NODE": 359.5005, "ARG_OF_PERICENTER": 9.4534, "MEAN_ANOMALY": 350.6928, "EPHEMERIS_TYPE": 0, "CLASSIFICATION_TYPE": "U", "NORAD_CAT_ID": 35931, "ELEMENT_SET_NO": 999, "REV_AT_EPOCH": 85514, "BSTAR": 3.4766382e-05, "MEAN_MOTION_DOT": 1.3e-07, "MEAN_MOTION_DDOT": 0}, "tle": {"line1": "1 35931U 09051A   25360.27322672  .00000013  00000+0  34766-4 0  9996", "line2": "2 35931  98.2218 359.5005 0015876   9.4534 350.6928 13.99622996855144"}}, "geometry": {"type": "Point", "coordinates": [-165.37878546576258, 60.35059430411731]}}, {"type": "Feature", "properties": {"norad_id": 35946, "name": "WORLDVIEW-2 (WV-2)", "group": "resource", "lat": -4.244642471708771, "lon": 72.25216556605096, "alt_km": 766.9365859135441, "timestamp": "2025-12-26T17:24:54.374611+00:00", "meta": {"OBJECT_NAME": "WORLDVIEW-2 (WV-2)", "OBJECT_ID": "2009-055A", "EPOCH": "2025-12-26T05:44:35.425824", "MEAN_MOTION": 14.37729954, "ECCENTRICITY": 0.00046562, "INCLINATION": 98.4771, "RA_OF_ASC_NODE": 71.1384, "ARG_OF_PERICENTER": 37.1451, "MEAN_ANOMALY": 323.0057, "EPHEMERIS_TYPE": 0, "CLASSIFICATION_TYPE": "U", "NORAD_CAT_ID": 35946, "ELEMENT_SET_NO": 999, "REV_AT_EPOCH": 85079, "BSTAR": 7.4193775e-05, "MEAN_MOTION_DOT": 1.8e-06, "MEAN_MOTION_DDOT": 0}, "tle": {"line1": "1 35946U 09055A   25360.23929891  .00000180  00000+0  74194-4 0  9992", "line2": "2 35946  98.4771  71.1384 0004656  37.1451 323.0057 14.37729954850791"}}, "geometry": {"type": "Point", "coordinates": [72.25216556605096, -4.244642471708771]}}, {"type": "Feature", "properties": {"norad_id": 36036, "name": "SMOS", "group": "resource", "lat": 46.380834723537085, "lon": 14.528767915341803, "alt_km": 754.7648301850486, "timestamp": "2025-12-26T17:24:54.374621+00:00", "meta": {"OBJECT_NAME": "SMOS", "OBJECT_ID": "2009-059A", "EPOCH": "2025-12-26T03:27:24.344064", "MEAN_MOTION": 14.39752905, "ECCENTRICITY": 0.00010469, "INCLINATION": 98.4382, "RA_OF_ASC_NODE": 184.9941, "ARG_OF_PERICENTER": 83.4772, "MEAN_ANOMALY": 276.6536, "EPHEMERIS_TYPE": 0, "CLASSIFICATION_TYPE": "U", "NORAD_CAT_ID": 36036, "ELEMENT_SET_NO": 999, "REV_AT_EPOCH": 84855, "BSTAR": 0.00013557366, "MEAN_MOTION_DOT": 3.81e-06, "MEAN_MOTION_DDOT": 0}, "tle": {"line1": "1 36036U 09059A   25360.14403176  .00000381  00000+0  13557-3 0  9998", "line2": "2 36036  98.4382 184.9941 0001046  83.4772 276.6536 14.39752905848552"}}, "geometry": {"type": "Point", "coordinates": [14.528767915341803, 46.380834723537085]}}, {"type": "Feature", "properties": {"norad_id": 36110, "name": "YAOGAN-7", "group": "resource", "lat": 66.28597467268304, "lon": -136.3126368664756, "alt_km": 645.9584971904314, "timestamp": "2025-12-26T17:24:54.374632+00:00", "meta": {"OBJECT_NAME": "YAOGAN-7", "OBJECT_ID": "2009-069A", "EPOCH": "2025-12-26T02:28:59.852928", "MEAN_MOTION": 14.77751393, "ECCENTRICITY": 0.00234872, "INCLINATION": 98.0293, "RA_OF_ASC_NODE": 241.8123, "ARG_OF_PERICENTER": 235.7484, "MEAN_ANOMALY": 124.1501, "EPHEMERIS_TYPE": 0, "CLASSIFICATION_TYPE": "U", "NORAD_CAT_ID": 36110, "ELEMENT_SET_NO": 999, "REV_AT_EPOCH": 86406, "BSTAR": 9.6001727e-05, "MEAN_MOTION_DOT": 6.38e-06, "MEAN_MOTION_DDOT": 0}, "tle": {"line1": "1 36110U 09069A   25360.10347052  .00000638  00000+0  96002-4 0  9990", "line2": "2 36110  98.0293 241.8123 0023487 235.7484 124.1501 14.77751393864067"}}, "geometry": {"type": "Point", "coordinates": [-136.3126368664756, 66.28597467268304]}}, {"type": "Feature", "properties": {"norad_id": 36605, "name": "TANDEM-X", "group": "resource", "lat": -54.05448755968152, "lon": 175.51105413821168, "alt_km": 516.4482953576216, "timestamp": "2025-12-26T17:24:54.374643+00:00", "meta": {"OBJECT_NAME": "TANDEM-X", "OBJECT_ID": "2010-030A", "EPOCH": "2025-12-25T13:30:40.340160", "MEAN_MOTION": 15.19154497, "ECCENTRICITY": 0.0001775, "INCLINATION": 97.4454, "RA_OF_ASC_NODE": 4.7557, "ARG_OF_PERICENTER": 93.2666, "MEAN_ANOMALY": 266.8771, "EPHEMERIS_TYPE": 0, "CLASSIFICATION_TYPE": "U", "NORAD_CAT_ID": 36605, "ELEMENT_SET_NO": 999, "REV_AT_EPOCH": 86028, "BSTAR": 5.683e-05, "MEAN_MOTION_DOT": 1.127e-05, "MEAN_MOTION_DDOT": 0}, "tle": {"line1": "1 36605U 10030A   25359.56296690  .00001127  00000+0  56830-4 0  9997", "line2": "2 36605  97.4454   4.7557 0001775  93.2666 266.8771 15.19154497860282"}}, "geometry": {"type": "Point", "coordinates": [175.51105413821168, -54.05448755968152]}}, {"type": "Feature", "properties": {"norad_id": 36795, "name": "CARTOSAT-2B", "group": "resource", "lat": 44.163546740238516, "lon": 41.66601398223125, "alt_km": 620.9311629856138, "timestamp": "2025-12-26T17:24:54.374653+00:00", "meta": {"OBJECT_NAME": "CARTOSAT-2B", "OBJECT_ID": "2010-035A", "EPOCH": "2025-12-26T05:50:46.696992", "MEAN_MOTION": 14.78746301, "ECCENTRICITY": 0.00124924, "INCLINATION": 97.7831, "RA_OF_ASC_NODE": 48.8334, "ARG_OF_PERICENTER": 36.7314, "MEAN_ANOMALY": 323.4752, "EPHEMERIS_TYPE": 0, "CLASSIFICATION_TYPE": "U", "NORAD_CAT_ID": 36795, "ELEMENT_SET_NO": 999, "REV_AT_EPOCH": 83429, "BSTAR": 0.00018041021, "MEAN_MOTION_DOT": 1.276e-05, "MEAN_MOTION_DDOT": 0}, "tle": {"line1": "1 36795U 10035A   25360.24359603  .00001276  00000+0  18041-3 0  9999", "line2": "2 36795  97.7831  48.8334 0012492  36.7314 323.4752 14.78746301834292"}}, "geometry": {"type": "Point", "coordinates": [41.66601398223125, 44.163546740238516]}}, {"type": "Feature", "properties": {"norad_id": 36834, "name": "YAOGAN-10", "group": "resource", "lat": 60.58598811613926, "lon": 6.157648201124291, "alt_km": 607.8718075716324, "timestamp": "2025-12-26T17:24:54.374663+00:00", "meta": {"OBJECT_NAME": "YAOGAN-10", "OBJECT_ID": "2010-038A", "EPOCH": "2025-12-26T07:58:39.697824", "MEAN_MOTION": 14.84659288, "ECCENTRICITY": 0.00013492, "INCLINATION": 97.9135, "RA_OF_ASC_NODE": 20.0505, "ARG_OF_PERICENTER": 79.7554, "MEAN_ANOMALY": 41.4641, "EPHEMERIS_TYPE": 0, "CLASSIFICATION_TYPE": "U", "NORAD_CAT_ID": 36834, "ELEMENT_SET_NO": 999, "REV_AT_EPOCH": 83155, "BSTAR": 0.00024065794, "MEAN_MOTION_DOT": 1.982e-05, "MEAN_MOTION_DDOT": 0}, "tle": {"line1": "1 36834U 10038A   25360.33240391  .00001982  00000+0  24066-3 0  9997", "line2": "2 36834  97.9135  20.0505 0001349  79.7554  41.4641 14.84659288831553"}}, "geometry": {"type": "Point", "coordinates": [6.157648201124291, 60.58598811613926]}}]}